[{"OBJECT_NAME":"ONEWEB-0439","OBJECT_ID":"2022-012P","EPOCH":"2026-04-23T06:45:02.396736","MEAN_MOTION":13.10369839,"ECCENTRICITY":0.000196,"INCLINATION":87.884,"RA_OF_ASC_NODE":47.194,"ARG_OF_PERICENTER":81.5764,"MEAN_ANOMALY":278.5585,"EPHEMERIS_TYPE":0,"CLASSIFICATION_TYPE":"U","NORAD_CAT_ID":51635,"ELEMENT_SET_NO":999,"REV_AT_EPOCH":20213,"BSTAR":0.0006246699999999999,"MEAN_MOTION_DOT":2.31e-06,"MEAN_MOTION_DDOT":0.0},{"OBJECT_NAME":"ONEWEB-0442","OBJECT_ID":"2022-012Q","EPOCH":"2026-04-23T03:37:17.477472","MEAN_MOTION":13.17649159,"ECCENTRICITY":0.0001573,"INCLINATION":87.9202,"RA_OF_ASC_NODE":16.8122,"ARG_OF_PERICENTER":96.1768,"MEAN_ANOMALY":263.9542,"EPHEMERIS_TYPE":0,"CLASSIFICATION_TYPE":"U","NORAD_CAT_ID":51636,"ELEMENT_SET_NO":999,"REV_AT_EPOCH":20642,"BSTAR":-0.00052174,"MEAN_MOTION_DOT":-1.9e-06,"MEAN_MOTION_DDOT":0.0},{"OBJECT_NAME":"ONEWEB-0443","OBJECT_ID":"2022-012R","EPOCH":"2026-04-23T04:05:14.125632","MEAN_MOTION":13.17647631,"ECCENTRICITY":0.0002081,"INCLINATION":87.9183,"RA_OF_ASC_NODE":16.8107,"ARG_OF_PERICENTER":86.8997,"MEAN_ANOMALY":273.2373,"EPHEMERIS_TYPE":0,"CLASSIFICATION_TYPE":"U","NORAD_CAT_ID":51637,"ELEMENT_SET_NO":999,"REV_AT_EPOCH":20647,"BSTAR":0.00017633,"MEAN_MOTION_DOT":8.1e-07,"MEAN_MOTION_DDOT":0.0},{"OBJECT_NAME":"ONEWEB-0444","OBJECT_ID":"2022-012S","EPOCH":"2026-04-23T01:00:51.700320","MEAN_MOTION":13.1037667,"ECCENTRICITY":0.0002118,"INCLINATION":87.8843,"RA_OF_ASC_NODE":47.2402,"ARG_OF_PERICENTER":83.5895,"MEAN_ANOMALY":276.5473,"EPHEMERIS_TYPE":0,"CLASSIFICATION_TYPE":"U","NORAD_CAT_ID":51638,"ELEMENT_SET_NO":999,"REV_AT_EPOCH":20211,"BSTAR":-0.0012547,"MEAN_MOTION_DOT":-4.25e-06,"MEAN_MOTION_DDOT":0.0},{"OBJECT_NAME":"ONEWEB-0445","OBJECT_ID":"2022-012T","EPOCH":"2026-04-23T01:31:54.282144","MEAN_MOTION":13.10371361,"ECCENTRICITY":0.0001706,"INCLINATION":87.8853,"RA_OF_ASC_NODE":47.2191,"ARG_OF_PERICENTER":73.0749,"MEAN_ANOMALY":287.0565,"EPHEMERIS_TYPE":0,"CLASSIFICATION_TYPE":"U","NORAD_CAT_ID":51639,"ELEMENT_SET_NO":999,"REV_AT_EPOCH":20212,"BSTAR":-0.0014628,"MEAN_MOTION_DOT":-4.98e-06,"MEAN_MOTION_DDOT":0.0},{"OBJECT_NAME":"ONEWEB-0446","OBJECT_ID":"2022-012U","EPOCH":"2026-04-23T06:28:19.096608","MEAN_MOTION":13.10371423,"ECCENTRICITY":0.0001768,"INCLINATION":87.8845,"RA_OF_ASC_NODE":47.2114,"ARG_OF_PERICENTER":76.3955,"MEAN_ANOMALY":283.7369,"EPHEMERIS_TYPE":0,"CLASSIFICATION_TYPE":"U","NORAD_CAT_ID":51640,"ELEMENT_SET_NO":999,"REV_AT_EPOCH":20213,"BSTAR":0.0019454,"MEAN_MOTION_DOT":6.92e-06,"MEAN_MOTION_DDOT":0.0},{"OBJECT_NAME":"ONEWEB-0448","OBJECT_ID":"2022-012V","EPOCH":"2026-04-23T06:35:28.788000","MEAN_MOTION":13.10375662,"ECCENTRICITY":0.0001933,"INCLINATION":87.8842,"RA_OF_ASC_NODE":47.2079,"ARG_OF_PERICENTER":80.6167,"MEAN_ANOMALY":279.5178,"EPHEMERIS_TYPE":0,"CLASSIFICATION_TYPE":"U","NORAD_CAT_ID":51641,"ELEMENT_SET_NO":999,"REV_AT_EPOCH":20210,"BSTAR":0.00095662,"MEAN_MOTION_DOT":3.47e-06,"MEAN_MOTION_DDOT":0.0},{"OBJECT_NAME":"ONEWEB-0449","OBJECT_ID":"2022-012W","EPOCH":"2026-04-23T06:42:38.607264","MEAN_MOTION":13.10369595,"ECCENTRICITY":0.0001807,"INCLINATION":87.885,"RA_OF_ASC_NODE":47.1898,"ARG_OF_PERICENTER":93.6259,"MEAN_ANOMALY":266.5075,"EPHEMERIS_TYPE":0,"CLASSIFICATION_TYPE":"U","NORAD_CAT_ID":51642,"ELEMENT_SET_NO":999,"REV_AT_EPOCH":20211,"BSTAR":0.0007969699999999999,"MEAN_MOTION_DOT":2.91e-06,"MEAN_MOTION_DDOT":0.0},{"OBJECT_NAME":"ONEWEB-0451","OBJECT_ID":"2022-012X","EPOCH":"2026-04-23T03:43:22.896768","MEAN_MOTION":13.17649684,"ECCENTRICITY":0.0001769,"INCLINATION":87.9198,"RA_OF_ASC_NODE":16.7715,"ARG_OF_PERICENTER":86.771,"MEAN_ANOMALY":273.3624,"EPHEMERIS_TYPE":0,"CLASSIFICATION_TYPE":"U","NORAD_CAT_ID":51643,"ELEMENT_SET_NO":999,"REV_AT_EPOCH":20641,"BSTAR":-4.9358e-07,"MEAN_MOTION_DOT":1.3e-07,"MEAN_MOTION_DDOT":0.0},{"OBJECT_NAME":"ONEWEB-0452","OBJECT_ID":"2022-012Y","EPOCH":"2026-04-23T03:40:55.697088","MEAN_MOTION":13.1764951,"ECCENTRICITY":0.0002043,"INCLINATION":87.9183,"RA_OF_ASC_NODE":16.8137,"ARG_OF_PERICENTER":88.2921,"MEAN_ANOMALY":271.8444,"EPHEMERIS_TYPE":0,"CLASSIFICATION_TYPE":"U","NORAD_CAT_ID":51644,"ELEMENT_SET_NO":999,"REV_AT_EPOCH":20642,"BSTAR":0.0002592,"MEAN_MOTION_DOT":1.14e-06,"MEAN_MOTION_DDOT":0.0},{"OBJECT_NAME":"ONEWEB-0456","OBJECT_ID":"2022-012AA","EPOCH":"2026-04-23T06:56:58.747776","MEAN_MOTION":13.10369608,"ECCENTRICITY":0.0002013,"INCLINATION":87.8853,"RA_OF_ASC_NODE":47.1706,"ARG_OF_PERICENTER":77.3379,"MEAN_ANOMALY":282.7973,"EPHEMERIS_TYPE":0,"CLASSIFICATION_TYPE":"U","NORAD_CAT_ID":51646,"ELEMENT_SET_NO":999,"REV_AT_EPOCH":20215,"BSTAR":-0.0006925,"MEAN_MOTION_DOT":-2.29e-06,"MEAN_MOTION_DDOT":0.0},{"OBJECT_NAME":"ONEWEB-0457","OBJECT_ID":"2022-012AB","EPOCH":"2026-04-23T06:23:32.266752","MEAN_MOTION":13.10372001,"ECCENTRICITY":0.0001479,"INCLINATION":87.8844,"RA_OF_ASC_NODE":47.1996,"ARG_OF_PERICENTER":79.4874,"MEAN_ANOMALY":280.642,"EPHEMERIS_TYPE":0,"CLASSIFICATION_TYPE":"U","NORAD_CAT_ID":51647,"ELEMENT_SET_NO":999,"REV_AT_EPOCH":20215,"BSTAR":0.0021087000000000002,"MEAN_MOTION_DOT":7.49e-06,"MEAN_MOTION_DDOT":0.0},{"OBJECT_NAME":"ONEWEB-0458","OBJECT_ID":"2022-012AC","EPOCH":"2026-04-23T06:54:35.645184","MEAN_MOTION":13.10368334,"ECCENTRICITY":0.0001952,"INCLINATION":87.8851,"RA_OF_ASC_NODE":47.179,"ARG_OF_PERICENTER":84.3487,"MEAN_ANOMALY":275.7863,"EPHEMERIS_TYPE":0,"CLASSIFICATION_TYPE":"U","NORAD_CAT_ID":51648,"ELEMENT_SET_NO":999,"REV_AT_EPOCH":20211,"BSTAR":-0.0007610599999999999,"MEAN_MOTION_DOT":-2.53e-06,"MEAN_MOTION_DDOT":0.0},{"OBJECT_NAME":"ONEWEB-0461","OBJECT_ID":"2022-012AD","EPOCH":"2026-04-23T06:01:52.281984","MEAN_MOTION":13.17647366,"ECCENTRICITY":0.0001706,"INCLINATION":87.9193,"RA_OF_ASC_NODE":16.7671,"ARG_OF_PERICENTER":79.0353,"MEAN_ANOMALY":281.097,"EPHEMERIS_TYPE":0,"CLASSIFICATION_TYPE":"U","NORAD_CAT_ID":51649,"ELEMENT_SET_NO":999,"REV_AT_EPOCH":20665,"BSTAR":0.0002292,"MEAN_MOTION_DOT":1.02e-06,"MEAN_MOTION_DDOT":0.0},{"OBJECT_NAME":"ONEWEB-0463","OBJECT_ID":"2022-012AE","EPOCH":"2026-04-23T03:45:48.435840","MEAN_MOTION":13.17649055,"ECCENTRICITY":0.0001717,"INCLINATION":87.918,"RA_OF_ASC_NODE":16.8136,"ARG_OF_PERICENTER":78.5141,"MEAN_ANOMALY":281.6184,"EPHEMERIS_TYPE":0,"CLASSIFICATION_TYPE":"U","NORAD_CAT_ID":51650,"ELEMENT_SET_NO":999,"REV_AT_EPOCH":20642,"BSTAR":1.1271000000000001e-05,"MEAN_MOTION_DOT":1.7e-07,"MEAN_MOTION_DDOT":0.0},{"OBJECT_NAME":"ONEWEB-0464","OBJECT_ID":"2022-012AF","EPOCH":"2026-04-22T18:00:07.690464","MEAN_MOTION":13.10369193,"ECCENTRICITY":0.0002168,"INCLINATION":87.8843,"RA_OF_ASC_NODE":47.3119,"ARG_OF_PERICENTER":80.4377,"MEAN_ANOMALY":279.6996,"EPHEMERIS_TYPE":0,"CLASSIFICATION_TYPE":"U","NORAD_CAT_ID":51651,"ELEMENT_SET_NO":999,"REV_AT_EPOCH":20206,"BSTAR":-0.00031995,"MEAN_MOTION_DOT":-9.9e-07,"MEAN_MOTION_DDOT":0.0}]