ONEWEB-0439             
1 51635U 22012P   26113.28127774  .00000231  00000+0  62467-3 0  9991
2 51635  87.8840  47.1940 0001960  81.5764 278.5585 13.10369839202130
ONEWEB-0442             
1 51636U 22012Q   26113.15089673 -.00000190  00000+0 -52174-3 0  9993
2 51636  87.9202  16.8122 0001573  96.1768 263.9542 13.17649159206425
ONEWEB-0443             
1 51637U 22012R   26113.17030238  .00000081  00000+0  17633-3 0  9997
2 51637  87.9183  16.8107 0002081  86.8997 273.2373 13.17647631206476
ONEWEB-0444             
1 51638U 22012S   26113.04226505 -.00000425  00000+0 -12547-2 0  9990
2 51638  87.8843  47.2402 0002118  83.5895 276.5473 13.10376670202116
ONEWEB-0445             
1 51639U 22012T   26113.06382271 -.00000498  00000+0 -14628-2 0  9998
2 51639  87.8853  47.2191 0001706  73.0749 287.0565 13.10371361202129
ONEWEB-0446             
1 51640U 22012U   26113.26966547  .00000692  00000+0  19454-2 0  9992
2 51640  87.8845  47.2114 0001768  76.3955 283.7369 13.10371423202135
ONEWEB-0448             
1 51641U 22012V   26113.27463875  .00000347  00000+0  95662-3 0  9993
2 51641  87.8842  47.2079 0001933  80.6167 279.5178 13.10375662202107
ONEWEB-0449             
1 51642U 22012W   26113.27961351  .00000291  00000+0  79697-3 0  9994
2 51642  87.8850  47.1898 0001807  93.6259 266.5075 13.10369595202112
ONEWEB-0451             
1 51643U 22012X   26113.15512612  .00000013  00000+0 -49358-6 0  9991
2 51643  87.9198  16.7715 0001769  86.7710 273.3624 13.17649684206411
ONEWEB-0452             
1 51644U 22012Y   26113.15342242  .00000114  00000+0  25920-3 0  9999
2 51644  87.9183  16.8137 0002043  88.2921 271.8444 13.17649510206424
ONEWEB-0456             
1 51646U 22012AA  26113.28956884 -.00000229  00000+0 -69250-3 0  9991
2 51646  87.8853  47.1706 0002013  77.3379 282.7973 13.10369608202155
ONEWEB-0457             
1 51647U 22012AB  26113.26634568  .00000749  00000+0  21087-2 0  9992
2 51647  87.8844  47.1996 0001479  79.4874 280.6420 13.10372001202150
ONEWEB-0458             
1 51648U 22012AC  26113.28791256 -.00000253  00000+0 -76106-3 0  9998
2 51648  87.8851  47.1790 0001952  84.3487 275.7863 13.10368334202118
ONEWEB-0461             
1 51649U 22012AD  26113.25129956  .00000102  00000+0  22920-3 0  9994
2 51649  87.9193  16.7671 0001706  79.0353 281.0970 13.17647366206653
ONEWEB-0463             
1 51650U 22012AE  26113.15681060  .00000017  00000+0  11271-4 0  9997
2 51650  87.9180  16.8136 0001717  78.5141 281.6184 13.17649055206424
ONEWEB-0464             
1 51651U 22012AF  26112.75008901 -.00000099  00000+0 -31995-3 0  9996
2 51651  87.8843  47.3119 0002168  80.4377 279.6996 13.10369193202063
